start=new Date('2022-06-13T00:00:00.000Z').valueOf();
sats=[{"MEAN_MOTION":"15.08819328","APOAPSIS":"540.942","RA_OF_ASC_NODE":"0.3139","MEAN_MOTION_DDOT":"0.0000000000000","CENTER_NAME":"EARTH","PERIOD":"95.439","MEAN_ANOMALY":"64.5826","BSTAR":"0.00140070000000","MEAN_ELEMENT_THEORY":"SGP4","FILE":"3493781","TLE_LINE2":"2 51795  53.2193   0.3139 0001639  63.3965  64.5826 15.08819328  1309","DECAY_DATE":null,"ELEMENT_SET_NO":"999","EPOCH":"2022-06-12T22:00:00.999936","SITE":"AFWTR","COUNTRY_CODE":"US","GP_ID":"206016282","SEMIMAJOR_AXIS":"6917.944","OBJECT_ID":"2022-017AD","LAUNCH_DATE":"2022-02-25","PERIAPSIS":"538.675","TLE_LINE1":"1 51795U 22017AD  22163.91667824  .00022062  00000-0  14007-2 0  9992","EPHEMERIS_TYPE":"0","ECCENTRICITY":"0.00016390","NORAD_CAT_ID":"51795","CLASSIFICATION_TYPE":"U","OBJECT_TYPE":"PAYLOAD","ARG_OF_PERICENTER":"63.3965","MEAN_MOTION_DOT":"0.00022062","RCS_SIZE":"LARGE","OBJECT_NAME":"STARLINK-3586","REV_AT_EPOCH":"130","TIME_SYSTEM":"UTC","REF_FRAME":"TEME","INCLINATION":"53.2193"},{"NORAD_CAT_ID":"51796","EPHEMERIS_TYPE":"0","ECCENTRICITY":"0.00018660","LAUNCH_DATE":"2022-02-25","OBJECT_ID":"2022-017AE","PERIAPSIS":"538.503","TLE_LINE1":"1 51796U 22017AE  22163.91667824  .00029687  00000-0  18763-2 0  9996","SEMIMAJOR_AXIS":"6917.929","REV_AT_EPOCH":"130","TIME_SYSTEM":"UTC","REF_FRAME":"TEME","INCLINATION":"53.2162","RCS_SIZE":"LARGE","OBJECT_NAME":"STARLINK-3630","CLASSIFICATION_TYPE":"U","OBJECT_TYPE":"PAYLOAD","ARG_OF_PERICENTER":"50.2852","MEAN_MOTION_DOT":"0.00029687","MEAN_ELEMENT_THEORY":"SGP4","FILE":"3493781","TLE_LINE2":"2 51796  53.2162   0.3146 0001866  50.2852 157.6937 15.08823974  1305","MEAN_MOTION_DDOT":"0.0000000000000","CENTER_NAME":"EARTH","MEAN_ANOMALY":"157.6937","PERIOD":"95.439","BSTAR":"0.00187630000000","APOAPSIS":"541.085","RA_OF_ASC_NODE":"0.3146","MEAN_MOTION":"15.08823974","GP_ID":"206016532","COUNTRY_CODE":"US","SITE":"AFWTR","EPOCH":"2022-06-12T22:00:00.999936","ELEMENT_SET_NO":"999","DECAY_DATE":null},{"DECAY_DATE":null,"ELEMENT_SET_NO":"999","EPOCH":"2022-06-12T22:00:00.999936","SITE":"AFWTR","COUNTRY_CODE":"US","GP_ID":"206016783","MEAN_MOTION":"15.08843259","APOAPSIS":"540.971","RA_OF_ASC_NODE":"0.3138","MEAN_MOTION_DDOT":"0.0000000000000","CENTER_NAME":"EARTH","PERIOD":"95.437","MEAN_ANOMALY":"36.7089","BSTAR":"-0.00025220000000","MEAN_ELEMENT_THEORY":"SGP4","FILE":"3493781","TLE_LINE2":"2 51797  53.2200   0.3138 0001786  51.2621  36.7089 15.08843259  1309","OBJECT_TYPE":"PAYLOAD","CLASSIFICATION_TYPE":"U","ARG_OF_PERICENTER":"51.2621","MEAN_MOTION_DOT":"-0.00004300","RCS_SIZE":"LARGE","OBJECT_NAME":"STARLINK-3627","REV_AT_EPOCH":"130","TIME_SYSTEM":"UTC","REF_FRAME":"TEME","INCLINATION":"53.2200","SEMIMAJOR_AXIS":"6917.870","LAUNCH_DATE":"2022-02-25","OBJECT_ID":"2022-017AF","PERIAPSIS":"538.500","TLE_LINE1":"1 51797U 22017AF  22163.91667824 -.00004300  00000-0 -25220-3 0  9991","EPHEMERIS_TYPE":"0","ECCENTRICITY":"0.00017860","NORAD_CAT_ID":"51797"},{"PERIOD":"95.438","MEAN_ANOMALY":"174.6909","BSTAR":"0.00169600000000","MEAN_MOTION_DDOT":"0.0000000000000","CENTER_NAME":"EARTH","TLE_LINE2":"2 51798  53.2154   0.3130 0001779  53.2836 174.6909 15.08830527  1309","MEAN_ELEMENT_THEORY":"SGP4","FILE":"3493781","MEAN_MOTION":"15.08830527","APOAPSIS":"541.005","RA_OF_ASC_NODE":"0.3130","SITE":"AFWTR","COUNTRY_CODE":"US","GP_ID":"206017029","DECAY_DATE":null,"ELEMENT_SET_NO":"999","EPOCH":"2022-06-12T22:00:00.999936","ECCENTRICITY":"0.00017790","EPHEMERIS_TYPE":"0","NORAD_CAT_ID":"51798","SEMIMAJOR_AXIS":"6917.909","TLE_LINE1":"1 51798U 22017AG  22163.91667824  .00026800  00000-0  16960-2 0  9999","LAUNCH_DATE":"2022-02-25","OBJECT_ID":"2022-017AG","PERIAPSIS":"538.544","RCS_SIZE":"LARGE","OBJECT_NAME":"STARLINK-3634","INCLINATION":"53.2154","TIME_SYSTEM":"UTC","REV_AT_EPOCH":"130","REF_FRAME":"TEME","ARG_OF_PERICENTER":"53.2836","MEAN_MOTION_DOT":"0.00026800","CLASSIFICATION_TYPE":"U","OBJECT_TYPE":"PAYLOAD"},{"CENTER_NAME":"EARTH","MEAN_MOTION_DDOT":"0.0000000000000","PERIOD":"95.438","BSTAR":"0.00179820000000","MEAN_ANOMALY":"113.7092","FILE":"3493781","MEAN_ELEMENT_THEORY":"SGP4","TLE_LINE2":"2 51799  53.2204   0.3119 0001679  54.2483 113.7092 15.08826044  1307","MEAN_MOTION":"15.08826044","RA_OF_ASC_NODE":"0.3119","APOAPSIS":"540.950","SITE":"AFWTR","COUNTRY_CODE":"US","GP_ID":"206015782","DECAY_DATE":null,"ELEMENT_SET_NO":"999","EPOCH":"2022-06-12T22:00:00.999936","EPHEMERIS_TYPE":"0","ECCENTRICITY":"0.00016790","NORAD_CAT_ID":"51799","SEMIMAJOR_AXIS":"6917.923","PERIAPSIS":"538.627","LAUNCH_DATE":"2022-02-25","OBJECT_ID":"2022-017AH","TLE_LINE1":"1 51799U 22017AH  22163.91667824  .00028435  00000-0  17982-2 0  9991","OBJECT_NAME":"STARLINK-3637","RCS_SIZE":"LARGE","REF_FRAME":"TEME","TIME_SYSTEM":"UTC","REV_AT_EPOCH":"130","INCLINATION":"53.2204","OBJECT_TYPE":"PAYLOAD","CLASSIFICATION_TYPE":"U","MEAN_MOTION_DOT":"0.00028435","ARG_OF_PERICENTER":"54.2483"},{"ELEMENT_SET_NO":"999","EPOCH":"2022-06-12T22:00:00.999936","DECAY_DATE":null,"GP_ID":"206016032","COUNTRY_CODE":"US","SITE":"AFWTR","APOAPSIS":"540.961","RA_OF_ASC_NODE":"0.3111","MEAN_MOTION":"15.08816950","TLE_LINE2":"2 51800  53.2148   0.3111 0001655  60.0590 202.7515 15.08816950  1301","MEAN_ELEMENT_THEORY":"SGP4","FILE":"3493781","PERIOD":"95.439","MEAN_ANOMALY":"202.7515","BSTAR":"0.00209490000000","MEAN_MOTION_DDOT":"0.0000000000000","CENTER_NAME":"EARTH","ARG_OF_PERICENTER":"60.0590","MEAN_MOTION_DOT":"0.00033189","OBJECT_TYPE":"PAYLOAD","CLASSIFICATION_TYPE":"U","INCLINATION":"53.2148","TIME_SYSTEM":"UTC","REV_AT_EPOCH":"130","REF_FRAME":"TEME","RCS_SIZE":"LARGE","OBJECT_NAME":"STARLINK-3600","TLE_LINE1":"1 51800U 22017AJ  22163.91667824  .00033189  00000-0  20949-2 0  9993","OBJECT_ID":"2022-017AJ","LAUNCH_DATE":"2022-02-25","PERIAPSIS":"538.671","SEMIMAJOR_AXIS":"6917.951","NORAD_CAT_ID":"51800","ECCENTRICITY":"0.00016550","EPHEMERIS_TYPE":"0"},{"TLE_LINE1":"1 51801U 22017AK  22163.91667824  .00013949  00000-0  89283-3 0  9993","LAUNCH_DATE":"2022-02-25","PERIAPSIS":"538.367","OBJECT_ID":"2022-017AK","SEMIMAJOR_AXIS":"6917.887","NORAD_CAT_ID":"51801","ECCENTRICITY":"0.00020030","EPHEMERIS_TYPE":"0","ARG_OF_PERICENTER":"47.5792","MEAN_MOTION_DOT":"0.00013949","OBJECT_TYPE":"PAYLOAD","CLASSIFICATION_TYPE":"U","INCLINATION":"53.2145","REV_AT_EPOCH":"1773","TIME_SYSTEM":"UTC","REF_FRAME":"TEME","RCS_SIZE":"LARGE","OBJECT_NAME":"STARLINK-3592","APOAPSIS":"541.138","RA_OF_ASC_NODE":"0.3117","MEAN_MOTION":"15.08837697","TLE_LINE2":"2 51801  53.2145   0.3117 0002003  47.5792 140.3873 15.08837697 17736","MEAN_ELEMENT_THEORY":"SGP4","FILE":"3493324","BSTAR":"0.00089283000000","PERIOD":"95.438","MEAN_ANOMALY":"140.3873","MEAN_MOTION_DDOT":"0.0000000000000","CENTER_NAME":"EARTH","EPOCH":"2022-06-12T22:00:00.999936","ELEMENT_SET_NO":"999","DECAY_DATE":null,"COUNTRY_CODE":"US","GP_ID":"205981843","SITE":"AFWTR"},{"EPHEMERIS_TYPE":"0","ECCENTRICITY":"0.00016530","NORAD_CAT_ID":"51802","SEMIMAJOR_AXIS":"6917.924","LAUNCH_DATE":"2022-02-25","OBJECT_ID":"2022-017AL","PERIAPSIS":"538.646","TLE_LINE1":"1 51802U 22017AL  22163.91667824  .00027106  00000-0  17153-2 0  9990","OBJECT_NAME":"STARLINK-3557","RCS_SIZE":"LARGE","REF_FRAME":"TEME","TIME_SYSTEM":"UTC","REV_AT_EPOCH":"130","INCLINATION":"53.2199","OBJECT_TYPE":"PAYLOAD","CLASSIFICATION_TYPE":"U","MEAN_MOTION_DOT":"0.00027106","ARG_OF_PERICENTER":"51.0252","CENTER_NAME":"EARTH","MEAN_MOTION_DDOT":"0.0000000000000","PERIOD":"95.438","BSTAR":"0.00171530000000","MEAN_ANOMALY":"31.7367","FILE":"3493781","MEAN_ELEMENT_THEORY":"SGP4","TLE_LINE2":"2 51802  53.2199   0.3137 0001653  51.0252  31.7367 15.08825687  1302","MEAN_MOTION":"15.08825687","RA_OF_ASC_NODE":"0.3137","APOAPSIS":"540.933","SITE":"AFWTR","GP_ID":"206017530","COUNTRY_CODE":"US","DECAY_DATE":null,"EPOCH":"2022-06-12T22:00:00.999936","ELEMENT_SET_NO":"999"},{"PERIAPSIS":"538.489","LAUNCH_DATE":"2022-02-25","OBJECT_ID":"2022-017AM","TLE_LINE1":"1 51803U 22017AM  22163.91667824 -.00010873  00000-0 -66604-3 0  9992","SEMIMAJOR_AXIS":"6917.873","NORAD_CAT_ID":"51803","EPHEMERIS_TYPE":"0","ECCENTRICITY":"0.00018050","CLASSIFICATION_TYPE":"U","OBJECT_TYPE":"PAYLOAD","ARG_OF_PERICENTER":"56.3023","MEAN_MOTION_DOT":"-0.00010873","TIME_SYSTEM":"UTC","REV_AT_EPOCH":"130","REF_FRAME":"TEME","INCLINATION":"53.2159","RCS_SIZE":"LARGE","OBJECT_NAME":"STARLINK-3544","APOAPSIS":"540.987","RA_OF_ASC_NODE":"0.3139","MEAN_MOTION":"15.08842466","MEAN_ELEMENT_THEORY":"SGP4","FILE":"3493781","TLE_LINE2":"2 51803  53.2159   0.3139 0001805  56.3023 191.6661 15.08842466  1301","MEAN_MOTION_DDOT":"0.0000000000000","CENTER_NAME":"EARTH","BSTAR":"-0.00066604000000","PERIOD":"95.437","MEAN_ANOMALY":"191.6661","EPOCH":"2022-06-12T22:00:00.999936","ELEMENT_SET_NO":"999","DECAY_DATE":null,"GP_ID":"206016283","COUNTRY_CODE":"US","SITE":"AFWTR"},{"NORAD_CAT_ID":"51804","ECCENTRICITY":"0.00012180","EPHEMERIS_TYPE":"0","TLE_LINE1":"1 51804U 22017AN  22163.91667824 -.00720179  00000-0 -36834-1 0  9990","LAUNCH_DATE":"2022-02-25","OBJECT_ID":"2022-017AN","PERIAPSIS":"509.046","SEMIMAJOR_AXIS":"6888.020","INCLINATION":"53.2175","REF_FRAME":"TEME","TIME_SYSTEM":"UTC","REV_AT_EPOCH":"1806","OBJECT_NAME":"STARLINK-3601","RCS_SIZE":"LARGE","MEAN_MOTION_DOT":"-0.00720179","ARG_OF_PERICENTER":"81.3350","OBJECT_TYPE":"PAYLOAD","CLASSIFICATION_TYPE":"U","TLE_LINE2":"2 51804  53.2175 340.4828 0001218  81.3350 342.8123 15.18662258 18066","FILE":"3493325","MEAN_ELEMENT_THEORY":"SGP4","MEAN_ANOMALY":"342.8123","PERIOD":"94.820","BSTAR":"-0.03683400000000","CENTER_NAME":"EARTH","MEAN_MOTION_DDOT":"0.0000000000000","RA_OF_ASC_NODE":"340.4828","APOAPSIS":"510.724","MEAN_MOTION":"15.18662258","GP_ID":"205981900","COUNTRY_CODE":"US","SITE":"AFWTR","ELEMENT_SET_NO":"999","EPOCH":"2022-06-12T22:00:00.999936","DECAY_DATE":null}];
